QIANFAN-60              
1 62790U 25016F   25240.88780610  .00000084  00000+0  11161-3 0  9993
2 62790  88.9785 114.0352 0013729 295.1014  64.8712 13.50962421 32939
QIANFAN-61              
1 62791U 25016G   25240.75215082  .00000103  00000+0  14119-3 0  9994
2 62791  88.9853 114.1350 0013180 294.2019  65.7754 13.50968090 32935
QIANFAN-62              
1 62792U 25016H   25240.90430864  .00000100  00000+0  13699-3 0  9998
2 62792  88.9799 114.0451 0014554 293.6672  66.2951 13.50962106 32948
QIANFAN-63              
1 62793U 25016J   25240.91672148  .00000090  00000+0  12076-3 0  9999
2 62793  88.9806 113.9853 0014457 298.6876  61.2821 13.50959177 32984
QIANFAN-64              
1 62794U 25016K   25240.90841241  .00000107  00000+0  14681-3 0  9994
2 62794  88.9793 113.9805 0012168 292.4773  67.5090 13.50961771 32971
QIANFAN-65              
1 62795U 25016L   25240.89201168  .00000094  00000+0  12743-3 0  9993
2 62795  88.9789 114.0090 0012389 294.5509  65.4351 13.50965658 32953
QIANFAN-66              
1 62796U 25016M   25240.92076238  .00000100  00000+0  13576-3 0  9999
2 62796  88.9808 113.9554 0013410 289.1202  70.8497 13.50960889 33004
QIANFAN-67              
1 62797U 25016N   25240.92483944  .00000095  00000+0  12866-3 0  9990
2 62797  88.9798 113.9909 0013531 296.7522  63.2244 13.50969517 32978
QIANFAN-68              
1 62798U 25016P   25240.92893965  .00000099  00000+0  13492-3 0  9999
2 62798  88.9802 114.0348 0014115 294.6073  65.3607 13.50967000 32950
QIANFAN-69              
1 62799U 25016Q   25240.93308109  .00000093  00000+0  12491-3 0  9994
2 62799  88.9781 113.9237 0014312 295.6298  64.3374 13.50962476 32997
QIANFAN-70              
1 62800U 25016R   25240.94954986  .00000097  00000+0  13262-3 0  9999
2 62800  88.9802 114.0380 0013704 285.0078  74.9556 13.50966444 32952
QIANFAN-71              
1 62801U 25016S   25240.87145056  .00000094  00000+0  12663-3 0  9993
2 62801  88.9796 114.0321 0014319 299.7605  60.2121 13.50966107 32942
QIANFAN-72              
1 62802U 25016T   25240.94132423  .00000103  00000+0  14116-3 0  9992
2 62802  88.9785 114.0436 0017877 305.4857  54.4626 13.50961574 32942
QIANFAN-73              
1 63159U 25046A   25240.91497480  .00000203  00000+0  29593-3 0  9991
2 63159  88.9861 330.9429 0016718  74.6222 285.6775 13.50966350 33129
QIANFAN-74              
1 63160U 25046B   25240.89845149  .00000200  00000+0  29187-3 0  9995
2 63160  88.9860 330.8331 0002084 109.5331 250.6046 13.50971756 33186
QIANFAN-75              
1 63161U 25046C   25240.88621396  .00000205  00000+0  29903-3 0  9992
2 63161  88.9861 331.0663 0017897  77.3398 282.9753 13.50967969 33052
QIANFAN-76              
1 63162U 25046D   25240.88199286  .00000200  00000+0  29015-3 0  9990
2 63162  88.9861 331.0478 0015484  78.5999 281.6891 13.50964697 33062
QIANFAN-77              
1 63163U 25046E   25240.89437455  .00000486  00000+0  34478-3 0  9990
2 63163  88.9857 329.9223 0016209  58.0046 302.2704 13.96026422 33680
QIANFAN-78              
1 63164U 25046F   25240.92321690  .00000201  00000+0  29199-3 0  9997
2 63164  88.9860 330.9088 0016898  80.1826 280.1233 13.50967822 33142
QIANFAN-79              
1 63165U 25046G   25240.87782757  .00000207  00000+0  30236-3 0  9997
2 63165  88.9864 331.0169 0016543  78.8685 281.4325 13.50969956 33082
QIANFAN-80              
1 63166U 25046H   25240.89440125  .00000198  00000+0  28797-3 0  9998
2 63166  88.9861 330.7250 0015625  82.9345 277.3583 13.50969802 33244
QIANFAN-81              
1 63167U 25046J   25240.87380907  .00000207  00000+0  30182-3 0  9990
2 63167  88.9861 330.7955 0016374  72.3574 287.9363 13.50968522 33191
QIANFAN-82              
1 63168U 25046K   25240.90664559  .00000211  00000+0  30836-3 0  9994
2 63168  88.9861 330.8356 0014707  79.9589 280.3221 13.50965546 33187
QIANFAN-83              
1 63169U 25046L   25240.90547928  .00000241  00000+0  29711-3 0  9998
2 63169  88.9860 330.8195 0015817  71.5225 288.7649 13.61941605 33195
QIANFAN-84              
1 63170U 25046M   25240.93537674  .00000194  00000+0  28139-3 0  9990
2 63170  88.9861 330.9658 0017575  75.7207 284.5895 13.50971953 33118
QIANFAN-85              
1 63171U 25046N   25240.85737035  .00000196  00000+0  28549-3 0  9992
2 63171  88.9860 330.8459 0015024  79.0029 281.2811 13.50966456 33172
QIANFAN-86              
1 63172U 25046P   25240.93965499  .00000206  00000+0  29954-3 0  9992
2 63172  88.9862 330.6972 0012996  83.3449 276.9181 13.50967062 33267
QIANFAN-87              
1 63173U 25046Q   25240.91079965  .00000207  00000+0  30205-3 0  9997
2 63173  88.9859 330.8157 0013605  78.7262 281.5418 13.50963665 33192
QIANFAN-88              
1 63174U 25046R   25240.85325994  .00000199  00000+0  28927-3 0  9995
2 63174  88.9861 330.7736 0014134  85.6306 274.6459 13.50970965 33214
QIANFAN-89              
1 63175U 25046S   25240.89015964  .00000171  00000+0  24534-3 0  9993
2 63175  88.9861 330.9587 0018257  76.1416 284.1765 13.50971381 33116
QIANFAN-90              
1 63176U 25046T   25240.91896589  .00000173  00000+0  24934-3 0  9993
2 63176  88.9861 330.9280 0015173  75.3253 284.9579 13.50970626 33135
